start=new Date('2023-03-22T00:00:00.000Z').valueOf();
sats=[{"MEAN_ELEMENT_THEORY":"SGP4","TLE_LINE1":"1 47405U 21005BJ  23080.76097764 -.00001214  00000-0 -62604-4 0  9999","RA_OF_ASC_NODE":"247.5645","BSTAR":"-0.00006260400000","EPOCH":"2023-03-21T18:15:48.468096","PERIAPSIS":"546.159","TIME_SYSTEM":"UTC","OBJECT_NAME":"STARLINK-2130","GP_ID":"228618179","REV_AT_EPOCH":"11966","REF_FRAME":"TEME","MEAN_MOTION_DOT":"-0.00001214","FILE":"3866953","TLE_LINE2":"2 47405  53.0528 247.5645 0001541  87.0846 273.0319 15.06395785119669","EPHEMERIS_TYPE":"0","PERIOD":"95.592","APOAPSIS":"548.294","ARG_OF_PERICENTER":"87.0846","NORAD_CAT_ID":"47405","CLASSIFICATION_TYPE":"U","MEAN_ANOMALY":"273.0319","DECAY_DATE":null,"COUNTRY_CODE":"US","SEMIMAJOR_AXIS":"6925.361","LAUNCH_DATE":"2021-01-20","RCS_SIZE":"LARGE","MEAN_MOTION":"15.06395785","OBJECT_ID":"2021-005BJ","INCLINATION":"53.0528","SITE":"AFETR","ELEMENT_SET_NO":"999","MEAN_MOTION_DDOT":"0.0000000000000","ECCENTRICITY":"0.00015410","CENTER_NAME":"EARTH","OBJECT_TYPE":"PAYLOAD"},{"BSTAR":"0.00095641000000","RA_OF_ASC_NODE":"218.6204","PERIAPSIS":"546.317","EPOCH":"2023-03-21T12:34:47.783424","MEAN_ELEMENT_THEORY":"SGP4","TLE_LINE1":"1 47406U 21005BK  23080.52416416  .00013987  00000-0  95641-3 0  9997","GP_ID":"228586675","REV_AT_EPOCH":"12005","OBJECT_NAME":"STARLINK-2133","TIME_SYSTEM":"UTC","PERIOD":"95.593","EPHEMERIS_TYPE":"0","MEAN_MOTION_DOT":"0.00013987","REF_FRAME":"TEME","FILE":"3866730","TLE_LINE2":"2 47406  53.0536 218.6204 0001360  95.8596 264.2548 15.06385257120051","MEAN_ANOMALY":"264.2548","CLASSIFICATION_TYPE":"U","DECAY_DATE":null,"APOAPSIS":"548.201","ARG_OF_PERICENTER":"95.8596","NORAD_CAT_ID":"47406","LAUNCH_DATE":"2021-01-20","SEMIMAJOR_AXIS":"6925.394","RCS_SIZE":"LARGE","MEAN_MOTION":"15.06385257","COUNTRY_CODE":"US","INCLINATION":"53.0536","OBJECT_ID":"2021-005BK","SITE":"AFETR","ECCENTRICITY":"0.00013600","ELEMENT_SET_NO":"999","MEAN_MOTION_DDOT":"0.0000000000000","CENTER_NAME":"EARTH","OBJECT_TYPE":"PAYLOAD"},{"RA_OF_ASC_NODE":"217.1042","BSTAR":"0.00210640000000","PERIAPSIS":"546.552","EPOCH":"2023-03-21T20:43:05.619936","MEAN_ELEMENT_THEORY":"SGP4","TLE_LINE1":"1 47407U 21005BL  23080.86325949  .00031226  00000-0  21064-2 0  9998","GP_ID":"228619681","REV_AT_EPOCH":"12010","TIME_SYSTEM":"UTC","OBJECT_NAME":"STARLINK-2134","PERIOD":"95.593","EPHEMERIS_TYPE":"0","MEAN_MOTION_DOT":"0.00031226","REF_FRAME":"TEME","FILE":"3866953","TLE_LINE2":"2 47407  53.0529 217.1042 0000990  93.7914 266.3188 15.06392100120101","MEAN_ANOMALY":"266.3188","CLASSIFICATION_TYPE":"U","DECAY_DATE":null,"APOAPSIS":"547.923","ARG_OF_PERICENTER":"93.7914","NORAD_CAT_ID":"47407","SEMIMAJOR_AXIS":"6925.373","LAUNCH_DATE":"2021-01-20","RCS_SIZE":"LARGE","MEAN_MOTION":"15.06392100","COUNTRY_CODE":"US","INCLINATION":"53.0529","OBJECT_ID":"2021-005BL","SITE":"AFETR","ECCENTRICITY":"0.00009900","ELEMENT_SET_NO":"999","MEAN_MOTION_DDOT":"0.0000000000000","CENTER_NAME":"EARTH","OBJECT_TYPE":"PAYLOAD"},{"TLE_LINE2":"2 47408  53.0525 218.4252 0001365  46.8622 313.2481 15.06599148120061","FILE":"3866953","REF_FRAME":"TEME","MEAN_MOTION_DOT":"0.00030855","EPHEMERIS_TYPE":"0","PERIOD":"95.580","NORAD_CAT_ID":"47408","APOAPSIS":"547.548","ARG_OF_PERICENTER":"46.8622","DECAY_DATE":null,"MEAN_ANOMALY":"313.2481","CLASSIFICATION_TYPE":"U","TLE_LINE1":"1 47408U 21005BM  23080.56818270  .00030855  00000-0  20701-2 0  9994","MEAN_ELEMENT_THEORY":"SGP4","EPOCH":"2023-03-21T13:38:10.985280","PERIAPSIS":"545.658","BSTAR":"0.00207010000000","RA_OF_ASC_NODE":"218.4252","OBJECT_NAME":"STARLINK-2135","TIME_SYSTEM":"UTC","REV_AT_EPOCH":"12006","GP_ID":"228618429","MEAN_MOTION_DDOT":"0.0000000000000","ELEMENT_SET_NO":"999","ECCENTRICITY":"0.00013650","OBJECT_TYPE":"PAYLOAD","CENTER_NAME":"EARTH","COUNTRY_CODE":"US","MEAN_MOTION":"15.06599148","RCS_SIZE":"LARGE","LAUNCH_DATE":"2021-01-20","SEMIMAJOR_AXIS":"6924.738","SITE":"AFETR","INCLINATION":"53.0525","OBJECT_ID":"2021-005BM"},{"CENTER_NAME":"EARTH","OBJECT_TYPE":"PAYLOAD","ELEMENT_SET_NO":"999","MEAN_MOTION_DDOT":"0.0000000000000","ECCENTRICITY":"0.00008190","INCLINATION":"53.0530","OBJECT_ID":"2021-009A","SITE":"AFETR","COUNTRY_CODE":"US","SEMIMAJOR_AXIS":"6925.505","LAUNCH_DATE":"2021-02-04","RCS_SIZE":"LARGE","MEAN_MOTION":"15.06349094","APOAPSIS":"547.937","ARG_OF_PERICENTER":"94.1382","NORAD_CAT_ID":"47548","MEAN_ANOMALY":"265.9701","CLASSIFICATION_TYPE":"U","DECAY_DATE":null,"REF_FRAME":"TEME","MEAN_MOTION_DOT":"0.00010623","FILE":"3866665","TLE_LINE2":"2 47548  53.0530 198.4034 0000819  94.1382 265.9701 15.06349094118135","PERIOD":"95.595","EPHEMERIS_TYPE":"0","OBJECT_NAME":"STARLINK-1782","TIME_SYSTEM":"UTC","GP_ID":"228564114","REV_AT_EPOCH":"11813","MEAN_ELEMENT_THEORY":"SGP4","TLE_LINE1":"1 47548U 21009A   23080.57391474  .00010623  00000-0  73198-3 0  9996","RA_OF_ASC_NODE":"198.4034","BSTAR":"0.00073198000000","PERIAPSIS":"546.802","EPOCH":"2023-03-21T13:46:26.233536"},{"MEAN_ELEMENT_THEORY":"SGP4","TLE_LINE1":"1 47549U 21009B   23080.57024080  .00024294  00000-0  16457-2 0  9996","BSTAR":"0.00164570000000","RA_OF_ASC_NODE":"198.4206","PERIAPSIS":"546.470","EPOCH":"2023-03-21T13:41:08.805120","TIME_SYSTEM":"UTC","OBJECT_NAME":"STARLINK-1806","GP_ID":"228564502","REV_AT_EPOCH":"11814","REF_FRAME":"TEME","MEAN_MOTION_DOT":"0.00024294","FILE":"3866665","TLE_LINE2":"2 47549  53.0530 198.4206 0001224  75.2462 284.8662 15.06366126118149","EPHEMERIS_TYPE":"0","PERIOD":"95.594","APOAPSIS":"548.165","ARG_OF_PERICENTER":"75.2462","NORAD_CAT_ID":"47549","MEAN_ANOMALY":"284.8662","CLASSIFICATION_TYPE":"U","DECAY_DATE":null,"COUNTRY_CODE":"US","LAUNCH_DATE":"2021-02-04","SEMIMAJOR_AXIS":"6925.452","RCS_SIZE":"LARGE","MEAN_MOTION":"15.06366126","INCLINATION":"53.0530","OBJECT_ID":"2021-009B","SITE":"AFETR","ELEMENT_SET_NO":"999","MEAN_MOTION_DDOT":"0.0000000000000","ECCENTRICITY":"0.00012240","CENTER_NAME":"EARTH","OBJECT_TYPE":"PAYLOAD"},{"COUNTRY_CODE":"US","SEMIMAJOR_AXIS":"6925.487","LAUNCH_DATE":"2021-02-04","RCS_SIZE":"LARGE","MEAN_MOTION":"15.06354868","INCLINATION":"53.0543","OBJECT_ID":"2021-009C","SITE":"AFETR","ELEMENT_SET_NO":"999","MEAN_MOTION_DDOT":"0.0000000000000","ECCENTRICITY":"0.00012600","CENTER_NAME":"EARTH","OBJECT_TYPE":"PAYLOAD","MEAN_ELEMENT_THEORY":"SGP4","TLE_LINE1":"1 47550U 21009C   23080.51586115  .00006140  00000-0  43123-3 0  9995","BSTAR":"0.00043123000000","RA_OF_ASC_NODE":"188.6632","PERIAPSIS":"546.479","EPOCH":"2023-03-21T12:22:50.403360","TIME_SYSTEM":"UTC","OBJECT_NAME":"STARLINK-1909","GP_ID":"228587942","REV_AT_EPOCH":"11766","MEAN_MOTION_DOT":"0.00006140","REF_FRAME":"TEME","FILE":"3866730","TLE_LINE2":"2 47550  53.0543 188.6632 0001260  90.6529 269.4605 15.06354868117666","EPHEMERIS_TYPE":"0","PERIOD":"95.595","ARG_OF_PERICENTER":"90.6529","APOAPSIS":"548.224","NORAD_CAT_ID":"47550","CLASSIFICATION_TYPE":"U","MEAN_ANOMALY":"269.4605","DECAY_DATE":null},{"MEAN_MOTION_DDOT":"0.0000000000000","ELEMENT_SET_NO":"999","ECCENTRICITY":"0.00009370","OBJECT_TYPE":"PAYLOAD","CENTER_NAME":"EARTH","COUNTRY_CODE":"US","MEAN_MOTION":"15.06379273","LAUNCH_DATE":"2021-02-04","SEMIMAJOR_AXIS":"6925.412","RCS_SIZE":"LARGE","SITE":"AFETR","OBJECT_ID":"2021-009D","INCLINATION":"53.0544","FILE":"3866665","TLE_LINE2":"2 47551  53.0544 208.3856 0000937 102.7049 257.4045 15.06379273117996","REF_FRAME":"TEME","MEAN_MOTION_DOT":"0.00023874","EPHEMERIS_TYPE":"0","PERIOD":"95.593","NORAD_CAT_ID":"47551","APOAPSIS":"547.926","ARG_OF_PERICENTER":"102.7049","MEAN_ANOMALY":"257.4045","CLASSIFICATION_TYPE":"U","DECAY_DATE":null,"TLE_LINE1":"1 47551U 21009D   23080.57666989  .00023874  00000-0  16171-2 0  9995","MEAN_ELEMENT_THEORY":"SGP4","PERIAPSIS":"546.628","EPOCH":"2023-03-21T13:50:24.278496","RA_OF_ASC_NODE":"208.3856","BSTAR":"0.00161710000000","TIME_SYSTEM":"UTC","OBJECT_NAME":"STARLINK-1938","GP_ID":"228564503","REV_AT_EPOCH":"11799"},{"SITE":"AFETR","INCLINATION":"53.0535","OBJECT_ID":"2021-009E","COUNTRY_CODE":"US","MEAN_MOTION":"15.06381810","RCS_SIZE":"LARGE","SEMIMAJOR_AXIS":"6925.404","LAUNCH_DATE":"2021-02-04","OBJECT_TYPE":"PAYLOAD","CENTER_NAME":"EARTH","MEAN_MOTION_DDOT":"0.0000000000000","ELEMENT_SET_NO":"999","ECCENTRICITY":"0.00010760","OBJECT_NAME":"STARLINK-1940","TIME_SYSTEM":"UTC","REV_AT_EPOCH":"11752","GP_ID":"228586441","TLE_LINE1":"1 47552U 21009E   23080.51495512  .00016161  00000-0  11019-2 0  9999","MEAN_ELEMENT_THEORY":"SGP4","PERIAPSIS":"546.524","EPOCH":"2023-03-21T12:21:32.122368","BSTAR":"0.00110190000000","RA_OF_ASC_NODE":"198.6667","NORAD_CAT_ID":"47552","ARG_OF_PERICENTER":"70.8266","APOAPSIS":"548.014","DECAY_DATE":null,"MEAN_ANOMALY":"289.2840","CLASSIFICATION_TYPE":"U","TLE_LINE2":"2 47552  53.0535 198.6667 0001076  70.8266 289.2840 15.06381810117524","FILE":"3866730","REF_FRAME":"TEME","MEAN_MOTION_DOT":"0.00016161","PERIOD":"95.593","EPHEMERIS_TYPE":"0"},{"SITE":"AFETR","INCLINATION":"53.0547","OBJECT_ID":"2021-009G","COUNTRY_CODE":"US","MEAN_MOTION":"15.06352207","SEMIMAJOR_AXIS":"6925.495","LAUNCH_DATE":"2021-02-04","RCS_SIZE":"LARGE","OBJECT_TYPE":"PAYLOAD","CENTER_NAME":"EARTH","MEAN_MOTION_DDOT":"0.0000000000000","ELEMENT_SET_NO":"999","ECCENTRICITY":"0.00011190","OBJECT_NAME":"STARLINK-1953","TIME_SYSTEM":"UTC","GP_ID":"228586691","REV_AT_EPOCH":"11724","TLE_LINE1":"1 47554U 21009G   23080.52045554  .00003607  00000-0  26127-3 0  9997","MEAN_ELEMENT_THEORY":"SGP4","EPOCH":"2023-03-21T12:29:27.358656","PERIAPSIS":"546.585","BSTAR":"0.00026127000000","RA_OF_ASC_NODE":"218.6387","NORAD_CAT_ID":"47554","APOAPSIS":"548.135","ARG_OF_PERICENTER":"97.2411","MEAN_ANOMALY":"262.8705","CLASSIFICATION_TYPE":"U","DECAY_DATE":null,"FILE":"3866730","TLE_LINE2":"2 47554  53.0547 218.6387 0001119  97.2411 262.8705 15.06352207117248","REF_FRAME":"TEME","MEAN_MOTION_DOT":"0.00003607","PERIOD":"95.595","EPHEMERIS_TYPE":"0"}];
